#dP2022  6  2  0  0  0.00000000      96 __u+U ITR00 EXT  IAC
## 2212 345600.00000000   900.00000000 59732 0.0000000000000
+  117   C06C07C08C09C10C11C12C13C14C16C19C20C21C22C23C24C25
+        C26C27C28C29C30C32C33C34C35C36C37C38C39C40C41C42C43
+        C44C45C46E01E02E03E04E05E07E08E09E10E11E12E13E14E15
+        E18E19E21E24E25E26E27E30E31E33E34E36G01G02G03G04G05
+        G06G07G08G09G10G11G12G13G14G15G16G17G18G19G20G21G22
+        G23G24G25G26G27G28G29G30G31G32J02J03R01R02R03R04R05
+        R07R08R09R11R12R13R14R15R17R18R19R20R21R22R24  0  0
++         9  9 13  9  8  9  9 12  9  8  8  8  9  9  9 10 10
++         9  9  8  9  8  8  8  8  9  8  9  9 10 10  9  8  9
++         7  8  9  8  8  8  7  7  8  9  9  8  8  8  8  8  7
++         8  8  8  8  9  7  7  7  8  8  7  8  7  8  7  7  7
++         8  8  7  7  8  8  7  9  9  8  8  9  8  8  8  7  7
++         8  7  9  8  9  8  8  8  7  8 10  9  9  8  8  8  8
++         8  8  9  8  8  8  9 10  7  9  8 10  9 10 10  0  0
%c M  cc GPS ccc cccc cccc cccc cccc ccccc ccccc ccccc ccccc
%c cc cc ccc ccc cccc cccc cccc cccc ccccc ccccc ccccc ccccc
%f  0.0000000  0.000000000  0.00000000000  0.000000000000000
%f  0.0000000  0.000000000  0.00000000000  0.000000000000000
%i    0    0    0    0      0      0      0      0         0
%i    0    0    0    0      0      0      0      0         0
/* IAC                                ULTRA-RAPID PREDICTION
/* S/V CLOCKS ARE ALIGNED TO GNSS TIME                      
/* G:C1WC2W R:C1PC2P E:C1XC5X C:C2IC6I J:C1CC2S             
/* PCV:IGS14_2196 OL/AL:FES2004  NONE     YN ORB:CoN CLK:CoN
*  2022 06 02 19  0  0.00000000
PC06 -10793.514656  23849.509037  33048.202599    109.438925
PC07 -13654.200999  39779.503559  -4130.649458   -247.431017
PC08   1201.504373  31829.603648 -27556.941474    343.793190
PC09  -2288.854686  24611.043952  34517.067061   -845.961367
PC10  -7555.953084  40249.779375 -10819.208096    128.806295
PC11   4441.648411 -15278.516247  22978.454756    390.382206
PC12  22275.917852 -10007.784659  13520.455041   -605.796085
PC13   6398.070429  35056.309669 -22192.163550    -15.053095
PC14   6940.607170 -25941.561062  -7446.710275    490.890427
PC16 -14799.681177  22745.709378  32390.380100    136.773885
PC19    648.151110  23137.293692  15636.324463    863.172846
PC20 -12328.339744  25057.351526   -108.411054   -941.374097
PC21  18762.423392 -11909.162456  16880.985152   -408.953486
PC22  13771.923992   7797.034124  22989.806298   -966.295785
PC23 -19797.709837 -17017.980076   9864.139582   -931.781544
PC24   6104.434285 -17705.539342 -20699.483104   -973.152553
PC25 -11165.683210 -24627.218959  -6941.884757   -727.608261
PC26  17485.458655  -2067.950314 -21652.203691    729.062675
PC27 -26874.713198   5171.617231  -5440.733931    732.872978
PC28 -24472.685744  -6756.272797  11586.269827     73.993246
PC29   7763.941374  14859.579277 -22319.967315    563.074721
PC30 -14030.632025  14644.271866 -19170.024570    499.376148
PC32 -18672.188909  12066.635328 -16858.727517   -965.778595
PC33   -728.279576 -23154.468387 -15533.924353   -967.422491
PC34  13044.143575 -14908.520013  19648.497456   -389.640344
PC35  24110.307914   6590.246003 -12458.911742    302.591027
PC36  10171.424186  24901.006025   7457.407901   -966.098386
PC37 -18068.304423    391.294208  21285.177663   -908.433316
PC38  -6102.382494  28001.916296 -30857.093276   -126.401814
PC39 -20499.206919  22149.612850  29413.493420     34.994488
PC40 -20628.614528  36866.887012  -1276.917145    274.199906
PC41 -13567.669302  -8222.800458 -22903.019535   -968.035527
PC42  12939.042019 -24681.181473   1229.172685   -964.920704
PC43  -6897.313875 -15158.494868  22374.984763   -920.465045
PC44  26775.555326  -5994.592258   5168.587915    679.676293
PC45  19812.616263  16810.367932 -10150.552265    773.227323
PC46  -4753.728330  18722.543751  20133.308531   -357.895128
PE01   8148.463097  26894.717436  -9294.150477   -488.554526
PE02  -8246.863773 -26819.370983   9445.314273    303.153472
PE03  -7193.427331 -15651.549801 -24066.487160   -564.716990
PE04  22805.480844    615.861389  18870.323158  -1041.461746
PE05  12994.873337 -21806.079890 -15212.664344   -175.826244
PE07 -25301.236714  15198.817696  -2322.791748   -674.625404
PE08 -22882.509431   -208.709867 -18776.515939   -539.792200
PE09  25216.650284 -15316.209070   2281.063081   -539.796499
PE10  26553.444487   3608.807940  12559.622838   -517.088666
PE11  21197.228922  -4384.101349  20182.879616   3478.176038
PE12  27403.343220  10700.563598   3372.196828   4582.762713
PE13 -21631.917487   3874.229229 -19828.217042    429.063788
PE14  -5072.350484  22805.069011 -22543.454438  -1819.390065
PE15 -27395.134466 -10721.144607  -3239.747482    741.842317
PE18  -2004.457338 -15344.151885  17917.045255  -1375.877922
PE19   4570.130748  16971.992807  23828.842651  -5487.609075
PE21  -3669.767862  28175.026961   8299.900164   -737.842975
PE24  14709.164292 -12130.360043 -22660.155077   -649.074228
PE25   3845.079108 -28076.704064  -8547.131342   -576.169717
PE26  -2300.188641  16613.002252 -24393.088308  -1216.869713
PE27 -14217.408119  13397.009657  22239.567015   -313.050504
PE30 -16143.707742 -10263.021810  22582.213050   -560.713835
PE31  16297.122973   9121.945068 -22957.565487   -497.629604
PE33  16978.700171  18922.271499 -15172.816704   -456.025118
PE34 -17184.744446 -18855.742007  15001.737538   -520.179333
PE36   3232.602817 -16070.375507  24641.511158   -382.500049
PG01  22512.520460  14441.960775    324.777126    349.595714
PG02  -7612.128841 -18306.384896  18252.884631   -652.986724
PG03  12618.337847  12996.980755  19352.972846   -265.769697
PG04  18812.548814   4998.210982  18119.004568   -161.155623
PG05  -6232.157738 -24214.420431  -8902.441068    -84.095809
PG06   7937.989191 -12328.798368  22207.049996    327.753637
PG07  22465.919045   2600.338765 -13908.547277    322.140684
PG08  11547.979136  10685.512473 -21484.181967    -70.527794
PG09  23914.296251  -4574.681192  10580.325204   -331.753170
PG10 -11517.848903  17545.211809 -15950.585237   -439.165282
PG11  -6091.717834 -19168.758421  17350.345266    -18.265890
PG12  -9863.601787 -17524.401329  17140.753981   -225.043681
PG13  -1087.359605 -15475.050239 -21691.657597    322.771287
PG14  13058.722957 -16124.990013 -16527.946408   -110.573054
PG15 -13660.072585  -9642.411624 -21100.586010    -56.344897
PG16    -18.554087  25906.650539  -4884.221517   -505.973202
PG17  21733.727111 -14222.853064   6101.197014    620.229921
PG18 -22209.183126  -2934.952167 -14366.204060    153.218024
PG19  16874.297758 -15807.829809  12613.013393    165.505716
PG20  -1028.430274 -26513.396872   2847.142296    513.373797
PG21  19042.704580  16696.741335  -8437.116790    161.273346
PG22 -13722.759428  17254.221142  15100.544980    269.291237
PG23 -14625.740383   6535.763936 -21177.521460    -25.747220
PG24 -21812.430359 -15038.930798  -4228.391266    229.133948
PG25 -15066.437049  -2252.995037  21480.523234    332.510932
PG26  -4694.427132  25019.292904   6911.445107    209.801030
PG27  -1977.397820  16866.232445 -20531.733916    211.433827
PG28   9258.702645 -23201.253361  -8843.076830    346.102528
PG29 -24233.777758   2766.372570  10545.749710   -520.052875
PG30  16638.857391  -6408.510261 -19673.054675   -530.110857
PG31  -6160.674234  14144.465111  21455.882161   -180.183446
PG32 -19442.231307  16371.625514   7509.610531   -141.665936
PJ02 -26863.689577  25850.992513  24761.771149     -0.412519
PJ03 -31009.287795  17509.963051 -17872.836757     -2.579492
PR01 -16589.017879   9201.921409 -17055.979107      9.394689
PR02 -15003.320573  20568.033357   1003.743565    520.185076
PR03  -4031.102356  18746.886332  16841.660521     57.729666
PR04   8699.332803   6427.119914  23133.652637    144.511232
PR05  16878.946412  -9331.607854  16720.922597     93.926402
PR07   3611.863967 -18449.331891 -17220.842012     35.905895
PR08  -8863.947522  -6345.495362 -23000.021746    -65.483223
PR09   3329.064520 -15991.287695 -19546.164329     58.391347
PR11 -13914.727451 -18387.826206  10900.009947     37.330978
PR12 -12288.931998  -1468.487315  22333.280964     18.720314
PR13  -3963.107149  14897.987413  20310.220293    -23.144172
PR14   7507.718669  23738.638000   5609.675175     25.420426
PR15  13879.673909  17973.764296 -11602.627752     95.684122
PR17   5422.140853  10923.353361 -22396.919612    531.471533
PR18  20734.583410   8317.629192 -12353.241580    118.962328
PR19  25190.257529   2644.250952   3007.502068   -191.290164
PR20  14390.020798  -6671.970866  19992.028144    -71.820821
PR21  -7066.941149 -10878.612563  21960.318287   -306.249433
PR22 -21115.285589  -8155.490919  11640.232690   -187.076377
PR24 -13603.754885   7693.673927 -20154.064847     96.770086
EOF
